CIC_OEM_VERS = 2.0
CREATION_DATE = 2025-01-11T09:56:36.408871
ORIGINATOR = ISAE-SUPAERO


META_START
OBJECT_NAME = PLEIADES-NEO4
OBJECT_ID = PLEIADES-NEO4
CENTER_NAME = Earth
REF_FRAME = EME2000
TIME_SYSTEM = UTC
START_TIME = 2025-01-11T00:00:00.000
USEABLE_START_TIME = 2025-01-11T00:00:00.000
USEABLE_STOP_TIME = 2025-01-12T00:00:00.000
STOP_TIME = 2025-01-12T00:00:00.000
INTERPOLATION = lagrange
INTERPOLATION_DEGREE = 5
META_STOP



60686 0.0 899.2758100000001 4149.5109 5559.7662 0.4320266 -6.0759519 4.4531979
60686 450.0 982.53122 1043.0309 6843.6541 -0.06922887 -7.4589077 1.1407946
60686 900.0 839.3729300000001 -2303.7459 6546.5378 -0.55456549 -7.1229626 -2.4357454
60686 1350.0 502.39169000000004 -5119.616 4734.0558 -0.91286546 -5.141434500000001 -5.4559814
60686 1800.0 49.453554 -6751.0704000000005 1825.5458999999998 -1.060521 -1.9654523 -7.2155602
60686 2250.0 -414.95246000000003 -6819.5285 -1506.7539 -0.96273889 1.666622 -7.3012802
60686 2700.0 -783.29412 -5310.0486 -4489.1544 -0.64292982 4.9058611 -5.6972342
60686 3150.0 -971.06796 -2574.8841 -6434.4049 -0.17591632999999998 7.0063756 -2.7817902
60686 3600.0 -935.6284300000001 752.17547 -6896.6576 0.33018221999999997 7.4905099 0.76663866
60686 4050.0 -685.3805 3906.5834 -5771.2743 0.76029594 6.254261400000001 4.1372021000000005
60686 4500.0 -277.67344 6163.162 -3316.4269 1.0162709 3.5770362 6.5594777
60686 4950.0 194.00576999999998 7000.3739000000005 -95.618813 1.0385178000000002 0.06881354 7.470973600000001
60686 5400.0 620.84312 6222.3701 3146.8313 0.82116422 -3.4577124 6.6551621999999995
60686 5850.0 904.4473 4009.1845000000003 5661.5553 0.41455777 -6.184678 4.3012678
60686 6300.0 979.5776500000001 871.94988 6868.2069 -0.087171374 -7.4843161 0.95610578
60686 6750.0 829.00755 -2466.1071 6488.4221 -0.5689398 -7.0595204 -2.6114113000000003
60686 7200.0 487.12714 -5234.826900000001 4607.3157 -0.92050477 -5.0023534000000005 -5.583525400000001
60686 7650.0 32.63355 -6792.3335 1658.0046000000002 -1.0595996 -1.78228 -7.2653588000000004
60686 8100.0 -429.3937 -6775.991599999999 -1676.4156 -0.95326699 1.853038 -7.2605073
60686 8550.0 -792.01636 -5190.495599999999 -4621.9823 -0.62670969 5.0525971 -5.5723048
60686 9000.0 -971.47619 -2403.3311000000003 -6496.16 -0.15665710000000002 7.0801947 -2.6012274000000004
60686 9450.0 -927.48666 936.1872900000001 -6871.986 0.3481593 7.4705528 0.9625666300000001
60686 9900.0 -670.27098 4060.5519 -5663.7210000000005 0.7726146700000001 6.1431211999999995 4.3019576
60686 10350.0 -258.924 6250.9812 -3149.6268999999998 1.0197681 3.4003029000000002 6.6524313
60686 10800.0 212.05441000000002 7001.7391 91.65683500000002 1.0322709 -0.12970635 7.4690633
60686 11250.0 634.19691 6138.4025 3311.9759 0.8069657 -3.6296630000000003 6.5604303
60686 11700.0 910.28692 3861.5962000000004 5767.4795 0.39610075 -6.2900242 4.1386448
60686 12150.0 976.99582 696.45245 6893.0214000000005 -0.10541301 -7.5011784 0.7654893700000001
60686 12600.0 819.0306 -2628.7418 6429.351900000001 -0.5830053900000001 -6.9870806000000005 -2.7867738
60686 13050.0 472.54488000000003 -5348.8525 4481.8460000000005 -0.9270026299999999 -4.8600809 -5.7016552
60686 13500.0 17.537614 -6838.3882 1501.7036 -1.0567469 -1.6049307 -7.2964273
60686 13950.0 -441.50774 -6743.7959 -1827.3522 -0.94366054 2.0158382 -7.209692200000001
60686 14400.0 -798.29024 -5088.1257000000005 -4732.0391 -0.61388101 5.1739801 -5.4623432
60686 14850.0 -970.52156 -2255.8467 -6539.8640000000005 -0.14090433 7.1467891 -2.4415117
60686 15300.0 -918.70646 1097.9569 -6833.9778 0.36514898 7.459463700000001 1.1504675
60686 15750.0 -655.76216 4204.1578 -5554.2163 0.78567483 6.0248223 4.4721656
60686 16200.0 -240.13069000000002 6325.8867 -2976.6695 1.0247112 3.2135333 6.755056300000001
60686 16650.0 230.81937 6983.9346 289.76 1.0271196 -0.3481414 7.4756457
60686 17100.0 648.3036 6024.5556 3488.9215 0.79170223 -3.8313224 6.4610836
60686 17550.0 915.2888100000001 3668.416 5875.7058 0.37392813 -6.4261273 3.9530453000000003
60686 18000.0 970.52225 463.53048 6899.5615 -0.13076358999999999 -7.5362656 0.5255520800000001
60686 18450.0 802.12302 -2850.5837 6329.9138 -0.6049740100000001 -6.8929403 -3.0239726
60686 18900.0 447.91115 -5502.482900000001 4289.776 -0.9388511700000001 -4.6606889 -5.8683344
60686 19350.0 -9.9727231 -6881.5826 1254.3238999999999 -1.0560158 -1.3472311 -7.3556448
60686 19800.0 -465.56739000000005 -6668.1006 -2072.3027 -0.92888041 2.276439 -7.1365386
60686 20250.0 -813.6711300000001 -4914.8012 -4919.2182 -0.58772272 5.3649453000000005 -5.2666485000000005
60686 20700.0 -974.38448 -2028.6415 -6630.3919000000005 -0.11281986000000001 7.2096563 -2.1907297
60686 21150.0 -911.4361700000001 1323.4098000000001 -6815.6072 0.38705245000000005 7.3966647000000005 1.3833113000000001
60686 21600.0 -639.39786 4371.7047 -5433.0323 0.7984690799999999 5.8853806 4.641898
60686 22050.0 -220.41376000000002 6414.6321 -2798.3901 1.0272326 3.0146552000000004 6.8381561
60686 22500.0 249.27913 6978.4371 482.38185 1.0194766 -0.5593859 7.4574936
60686 22950.0 661.42514 5930.1125 3651.7237999999998 0.77615166 -4.0080679 6.3499232
60686 23400.0 920.76665 3511.6513 5975.2753 0.35384222 -6.5283616 3.7733591000000004
60686 23850.0 967.63752 282.70090000000005 6916.3845 -0.14958495 -7.5399833 0.32715787
60686 24300.0 791.35104 -3011.5339 6258.3303 -0.6185942400000001 -6.812194900000001 -3.194973
60686 24750.0 432.42689 -5610.3516 4152.2234 -0.9453719700000001 -4.5098668 -5.9819954
60686 25200.0 -26.476281 -6912.1883 1083.8134 -1.0539709000000002 -1.1615065 -7.3857558
60686 25650.0 -479.30816 -6615.414 -2236.1027000000004 -0.91885556 2.4538299 -7.0771251
60686 26100.0 -821.54299 -4790.9776 -5038.8818 -0.57188909 5.4955626 -5.1313260000000005
60686 26550.0 -974.5061999999999 -1862.646 -6677.7915 -0.094808826 7.2632068 -2.0107379
60686 27000.0 -903.68509 1493.5706 -6779.2379 0.40338775 7.361079200000001 1.5686758
60686 27450.0 -625.36478 4506.617 -5319.856900000001 0.80950388 5.7669543999999995 4.791220900000001
60686 27900.0 -203.14441000000002 6481.6719 -2632.9445 1.0302784 2.8390726 6.9161105
60686 28350.0 265.89277000000004 6961.7559 662.5190600000001 1.0134542 -0.75009652 7.442904400000001
60686 28800.0 673.52321 5832.8138 3804.6745 0.76250883 -4.1684176 6.2460992
60686 29250.0 925.6265500000001 3356.6564 6065.9372 0.33610876 -6.6192158 3.6070172
60686 29700.0 964.41317 106.61763 6925.6473 -0.16701049 -7.5412741 0.13936205000000002
60686 30150.0 781.1199399999999 -3167.9802999999997 6186.492200000001 -0.6316635199999999 -6.7263987 -3.3600816
60686 30600.0 417.8088 -5712.4427000000005 4018.0584 -0.95134761 -4.3585463 -6.0879892
60686 31050.0 -41.950785 -6937.8683 919.75035 -1.0517505 -0.97965367 -7.4102781
60686 31500.0 -492.02626000000004 -6559.8877999999995 -2391.6463 -0.9091663999999999 2.6258969000000003 -7.016166
60686 31950.0 -828.34688 -4660.4301 -5149.4585 -0.55718433 5.624756400000001 -5.0017966
60686 32400.0 -973.8833199999999 -1690.0711000000001 -6717.7536 -0.077194517 7.3164621 -1.8327707
60686 32850.0 -895.28187 1669.5418000000002 -6735.9817 0.41957812 7.3220374 1.7526875
60686 33300.0 -610.82518 4645.187 -5201.2375 0.81993191 5.6432864 4.9346746
60686 33750.0 -185.78363000000002 6551.407200000001 -2466.2232000000004 1.0320823000000001 2.6614132 6.9820035
60686 34200.0 282.12459 6947.196400000001 839.01311 1.0064264 -0.9370495 7.416988099999999
60686 34650.0 684.84389 5735.5729 3950.2056000000002 0.7490757 -4.3218897 6.140459
60686 35100.0 929.88684 3204.0807000000004 6149.4096 0.31883483 -6.704644900000001 3.4422913
60686 35550.0 960.8205 -65.09846 6929.005700000001 -0.18395989000000001 -7.5395089 -0.044968314
60686 36000.0 770.70861 -3319.2939 6110.4764000000005 -0.64445421 -6.6394776 -3.521783
60686 36450.0 403.12821 -5808.905900000001 3881.3421000000003 -0.95722469 -4.207175100000001 -6.1911135999999996
60686 36900.0 -57.429994 -6957.3385 754.53043 -1.0496149000000001 -0.79852735 -7.4326984000000005
60686 37350.0 -504.80415999999997 -6498.9083 -2547.5182999999997 -0.89932751 2.7971657 -6.9518955
60686 37800.0 -835.51061 -4538.1135 -5259.3535 -0.5418841200000001 5.7418714 -4.8645742
60686 38250.0 -973.69875 -1531.5257 -6756.219900000001 -0.060383872 7.3574606000000005 -1.6581719000000001
60686 38700.0 -887.84185 1827.5691000000002 -6694.474 0.43445951000000005 7.2787482 1.9270763
60686 39150.0 -597.71513 4765.9915 -5088.4243 0.82976978 5.5239949 5.071153100000001
60686 39600.0 -169.82244 6606.006 -2306.5159 1.0344693 2.4905320000000004 7.048697000000001
60686 40050.0 297.26340000000005 6920.0298 1009.2403 1.0004713 -1.1222742 7.3961662
60686 40500.0 695.67541 5634.1112 4091.3314 0.7355773600000001 -4.4743505 6.031994399999999
60686 40950.0 933.6416300000001 3048.3955 6227.3334 0.30149251 -6.7884548 3.2754136
60686 41400.0 956.64487 -239.1157 6925.7970000000005 -0.20117466 -7.5356119 -0.23160631
60686 41850.0 759.56649 -3471.6054 6026.8822 -0.65759667 -6.5487763999999995 -3.6854106000000004
60686 42300.0 387.58328000000006 -5904.4055 3736.5957000000003 -0.96325959 -4.0502624 -6.2938952
60686 42750.0 -73.80164200000002 -6973.9136 581.94544 -1.047094 -0.6114945 -7.4506211
60686 43200.0 -518.19901 -6432.8538 -2707.9229 -0.88883067 2.9704768 -6.8805629
60686 43650.0 -842.83734 -4404.1448 -5370.5871 -0.5259025900000001 5.8619144 -4.721021800000001
60686 44100.0 -973.27304 -1361.0827 -6792.557900000001 -0.042583852 7.396402500000001 -1.4754023
60686 44550.0 -879.75933 1995.2572 -6647.5575 0.45002997 7.2278057 2.1070805
60686 45000.0 -583.81644 4892.312900000001 -4969.004900000001 0.83953074 5.3946547 5.2070371
60686 45450.0 -153.30716 6661.7401 -2142.0652 1.0360867 2.3124933999999997 7.1088167
60686 45900.0 312.56265 6892.3085 1180.6417 0.99357175 -1.3076993000000001 7.3663807
60686 46350.0 706.1832800000001 5528.3138 4229.8867 0.72182355 -4.6252917 5.9197643
60686 46800.0 936.91911 2888.9245 6300.986400000001 0.28386711000000003 -6.8698606 3.1055637000000003
